[{"OBJECT_NAME":"STARLINK-4568","OBJECT_ID":"2022-104AL","EPOCH":"2025-12-22T19:18:59.732928","MEAN_MOTION":15.08838479,"ECCENTRICITY":0.00015,"INCLINATION":53.2162,"RA_OF_ASC_NODE":218.8757,"ARG_OF_PERICENTER":90.5615,"MEAN_ANOMALY":269.5549,"EPHEMERIS_TYPE":0,"CLASSIFICATION_TYPE":"U","NORAD_CAT_ID":53622,"ELEMENT_SET_NO":999,"REV_AT_EPOCH":18414,"BSTAR":5.6075e-5,"MEAN_MOTION_DOT":6.05e-6,"MEAN_MOTION_DDOT":0},{"OBJECT_NAME":"STARLINK-4573","OBJECT_ID":"2022-104AM","EPOCH":"2025-12-22T19:56:07.963008","MEAN_MOTION":15.08830161,"ECCENTRICITY":0.0001447,"INCLINATION":53.2161,"RA_OF_ASC_NODE":219.0299,"ARG_OF_PERICENTER":85.8109,"MEAN_ANOMALY":274.3049,"EPHEMERIS_TYPE":0,"CLASSIFICATION_TYPE":"U","NORAD_CAT_ID":53623,"ELEMENT_SET_NO":999,"REV_AT_EPOCH":18414,"BSTAR":9.0513e-5,"MEAN_MOTION_DOT":1.152e-5,"MEAN_MOTION_DDOT":0},{"OBJECT_NAME":"STARLINK-4596","OBJECT_ID":"2022-104AN","EPOCH":"2025-12-22T19:40:13.128096","MEAN_MOTION":15.08842109,"ECCENTRICITY":0.0001461,"INCLINATION":53.2162,"RA_OF_ASC_NODE":218.9639,"ARG_OF_PERICENTER":86.6786,"MEAN_ANOMALY":273.4373,"EPHEMERIS_TYPE":0,"CLASSIFICATION_TYPE":"U","NORAD_CAT_ID":53624,"ELEMENT_SET_NO":999,"REV_AT_EPOCH":18414,"BSTAR":7.6857e-5,"MEAN_MOTION_DOT":9.35e-6,"MEAN_MOTION_DDOT":0},{"OBJECT_NAME":"STARLINK-4554","OBJECT_ID":"2022-104AQ","EPOCH":"2025-12-22T19:24:18.133344","MEAN_MOTION":15.08839984,"ECCENTRICITY":0.0001675,"INCLINATION":53.2175,"RA_OF_ASC_NODE":218.8966,"ARG_OF_PERICENTER":89.8308,"MEAN_ANOMALY":270.2876,"EPHEMERIS_TYPE":0,"CLASSIFICATION_TYPE":"U","NORAD_CAT_ID":53626,"ELEMENT_SET_NO":999,"REV_AT_EPOCH":18415,"BSTAR":6.4862e-5,"MEAN_MOTION_DOT":7.44e-6,"MEAN_MOTION_DDOT":0},{"OBJECT_NAME":"STARLINK-4595","OBJECT_ID":"2022-104AR","EPOCH":"2025-12-22T19:34:53.273568","MEAN_MOTION":15.08853293,"ECCENTRICITY":0.0001704,"INCLINATION":53.2163,"RA_OF_ASC_NODE":218.9394,"ARG_OF_PERICENTER":85.6524,"MEAN_ANOMALY":274.4663,"EPHEMERIS_TYPE":0,"CLASSIFICATION_TYPE":"U","NORAD_CAT_ID":53627,"ELEMENT_SET_NO":999,"REV_AT_EPOCH":18415,"BSTAR":0.00013317,"MEAN_MOTION_DOT":1.833e-5,"MEAN_MOTION_DDOT":0},{"OBJECT_NAME":"STARLINK-4600","OBJECT_ID":"2022-104AS","EPOCH":"2025-12-22T19:13:41.278944","MEAN_MOTION":15.08838486,"ECCENTRICITY":0.0001433,"INCLINATION":53.2167,"RA_OF_ASC_NODE":218.8499,"ARG_OF_PERICENTER":89.7986,"MEAN_ANOMALY":270.317,"EPHEMERIS_TYPE":0,"CLASSIFICATION_TYPE":"U","NORAD_CAT_ID":53628,"ELEMENT_SET_NO":999,"REV_AT_EPOCH":18415,"BSTAR":4.9823e-5,"MEAN_MOTION_DOT":5.05e-6,"MEAN_MOTION_DDOT":0},{"OBJECT_NAME":"STARLINK-4602","OBJECT_ID":"2022-104AT","EPOCH":"2025-12-22T08:21:54.364896","MEAN_MOTION":15.08839246,"ECCENTRICITY":0.00014434,"INCLINATION":53.2153,"RA_OF_ASC_NODE":220.9996,"ARG_OF_PERICENTER":91.0253,"MEAN_ANOMALY":269.0904,"EPHEMERIS_TYPE":0,"CLASSIFICATION_TYPE":"U","NORAD_CAT_ID":53629,"ELEMENT_SET_NO":999,"REV_AT_EPOCH":18408,"BSTAR":6.4646002e-5,"MEAN_MOTION_DOT":7.41e-6,"MEAN_MOTION_DDOT":0},{"OBJECT_NAME":"STARLINK-4598","OBJECT_ID":"2022-104AU","EPOCH":"2025-12-22T20:20:05.667648","MEAN_MOTION":15.0884032,"ECCENTRICITY":0.0001374,"INCLINATION":53.2165,"RA_OF_ASC_NODE":209.1541,"ARG_OF_PERICENTER":86.6985,"MEAN_ANOMALY":273.4165,"EPHEMERIS_TYPE":0,"CLASSIFICATION_TYPE":"U","NORAD_CAT_ID":53630,"ELEMENT_SET_NO":999,"REV_AT_EPOCH":18446,"BSTAR":8.9174e-5,"MEAN_MOTION_DOT":1.132e-5,"MEAN_MOTION_DDOT":0},{"OBJECT_NAME":"STARLINK-4599","OBJECT_ID":"2022-104AV","EPOCH":"2025-12-22T01:39:08.081856","MEAN_MOTION":15.08840372,"ECCENTRICITY":0.00014753,"INCLINATION":53.2165,"RA_OF_ASC_NODE":222.1004,"ARG_OF_PERICENTER":87.1563,"MEAN_ANOMALY":272.9598,"EPHEMERIS_TYPE":0,"CLASSIFICATION_TYPE":"U","NORAD_CAT_ID":53631,"ELEMENT_SET_NO":999,"REV_AT_EPOCH":18404,"BSTAR":6.1541565e-5,"MEAN_MOTION_DOT":6.92e-6,"MEAN_MOTION_DDOT":0},{"OBJECT_NAME":"STARLINK-4606","OBJECT_ID":"2022-104AW","EPOCH":"2025-12-22T20:08:04.840224","MEAN_MOTION":15.08835839,"ECCENTRICITY":0.0001478,"INCLINATION":53.2171,"RA_OF_ASC_NODE":209.1042,"ARG_OF_PERICENTER":95.9111,"MEAN_ANOMALY":264.205,"EPHEMERIS_TYPE":0,"CLASSIFICATION_TYPE":"U","NORAD_CAT_ID":53632,"ELEMENT_SET_NO":999,"REV_AT_EPOCH":18462,"BSTAR":4.2579e-5,"MEAN_MOTION_DOT":3.9e-6,"MEAN_MOTION_DDOT":0},{"OBJECT_NAME":"STARLINK-4593","OBJECT_ID":"2022-104AX","EPOCH":"2025-12-22T20:13:24.725856","MEAN_MOTION":15.08818793,"ECCENTRICITY":0.0001543,"INCLINATION":53.2172,"RA_OF_ASC_NODE":209.1248,"ARG_OF_PERICENTER":90.8421,"MEAN_ANOMALY":269.2748,"EPHEMERIS_TYPE":0,"CLASSIFICATION_TYPE":"U","NORAD_CAT_ID":53633,"ELEMENT_SET_NO":999,"REV_AT_EPOCH":18429,"BSTAR":0.00039647,"MEAN_MOTION_DOT":6.024e-5,"MEAN_MOTION_DDOT":0},{"OBJECT_NAME":"STARLINK-4592","OBJECT_ID":"2022-104AY","EPOCH":"2025-12-22T19:57:27.646272","MEAN_MOTION":15.08839187,"ECCENTRICITY":0.0001586,"INCLINATION":53.2165,"RA_OF_ASC_NODE":209.0551,"ARG_OF_PERICENTER":85.9963,"MEAN_ANOMALY":274.1211,"EPHEMERIS_TYPE":0,"CLASSIFICATION_TYPE":"U","NORAD_CAT_ID":53634,"ELEMENT_SET_NO":999,"REV_AT_EPOCH":18462,"BSTAR":1.4415e-5,"MEAN_MOTION_DOT":-5.9e-7,"MEAN_MOTION_DDOT":0},{"OBJECT_NAME":"STARLINK-4587","OBJECT_ID":"2022-104AZ","EPOCH":"2025-12-22T14:00:01.999872","MEAN_MOTION":15.37091725,"ECCENTRICITY":0.00014114,"INCLINATION":53.2178,"RA_OF_ASC_NODE":208.4259,"ARG_OF_PERICENTER":73.5164,"MEAN_ANOMALY":197.0372,"EPHEMERIS_TYPE":0,"CLASSIFICATION_TYPE":"U","NORAD_CAT_ID":53635,"ELEMENT_SET_NO":999,"REV_AT_EPOCH":584,"BSTAR":0.045940793,"MEAN_MOTION_DOT":0.0189237,"MEAN_MOTION_DDOT":0},{"OBJECT_NAME":"STARLINK-4586","OBJECT_ID":"2022-104BA","EPOCH":"2025-12-22T19:46:52.474080","MEAN_MOTION":15.0889647,"ECCENTRICITY":0.0002275,"INCLINATION":53.2161,"RA_OF_ASC_NODE":209.0091,"ARG_OF_PERICENTER":33.058,"MEAN_ANOMALY":327.0554,"EPHEMERIS_TYPE":0,"CLASSIFICATION_TYPE":"U","NORAD_CAT_ID":53636,"ELEMENT_SET_NO":999,"REV_AT_EPOCH":18462,"BSTAR":0.0015664,"MEAN_MOTION_DOT":0.00024768,"MEAN_MOTION_DDOT":0},{"OBJECT_NAME":"STARLINK-4396","OBJECT_ID":"2022-104BB","EPOCH":"2025-12-22T20:35:58.957728","MEAN_MOTION":15.0884188,"ECCENTRICITY":0.0001438,"INCLINATION":53.2154,"RA_OF_ASC_NODE":209.2152,"ARG_OF_PERICENTER":93.4185,"MEAN_ANOMALY":266.6972,"EPHEMERIS_TYPE":0,"CLASSIFICATION_TYPE":"U","NORAD_CAT_ID":53637,"ELEMENT_SET_NO":999,"REV_AT_EPOCH":18462,"BSTAR":5.591e-5,"MEAN_MOTION_DOT":6.02e-6,"MEAN_MOTION_DDOT":0},{"OBJECT_NAME":"STARLINK-4594","OBJECT_ID":"2022-104BC","EPOCH":"2025-12-22T19:20:19.226112","MEAN_MOTION":15.08839784,"ECCENTRICITY":0.0001571,"INCLINATION":53.216,"RA_OF_ASC_NODE":208.8986,"ARG_OF_PERICENTER":92.5416,"MEAN_ANOMALY":267.5756,"EPHEMERIS_TYPE":0,"CLASSIFICATION_TYPE":"U","NORAD_CAT_ID":53638,"ELEMENT_SET_NO":999,"REV_AT_EPOCH":18462,"BSTAR":1.7616e-6,"MEAN_MOTION_DOT":-2.6e-6,"MEAN_MOTION_DDOT":0},{"OBJECT_NAME":"STARLINK-4422","OBJECT_ID":"2022-104BD","EPOCH":"2025-12-22T19:41:33.705600","MEAN_MOTION":15.08837191,"ECCENTRICITY":0.0001461,"INCLINATION":53.2166,"RA_OF_ASC_NODE":208.9889,"ARG_OF_PERICENTER":80.9208,"MEAN_ANOMALY":279.1949,"EPHEMERIS_TYPE":0,"CLASSIFICATION_TYPE":"U","NORAD_CAT_ID":53639,"ELEMENT_SET_NO":999,"REV_AT_EPOCH":18445,"BSTAR":0.00017584,"MEAN_MOTION_DOT":2.511e-5,"MEAN_MOTION_DDOT":0}]
