STARLINK-4568           
1 53622U 22104AL  25356.80485802  .00000605  00000+0  56075-4 0  9990
2 53622  53.2162 218.8757 0001500  90.5615 269.5549 15.08838479184140
STARLINK-4573           
1 53623U 22104AM  25356.83064772  .00001152  00000+0  90513-4 0  9996
2 53623  53.2161 219.0299 0001447  85.8109 274.3049 15.08830161184148
STARLINK-4596           
1 53624U 22104AN  25356.81959639  .00000935  00000+0  76857-4 0  9993
2 53624  53.2162 218.9639 0001461  86.6786 273.4373 15.08842109184147
STARLINK-4554           
1 53626U 22104AQ  25356.80854321  .00000744  00000+0  64862-4 0  9997
2 53626  53.2175 218.8966 0001675  89.8308 270.2876 15.08839984184158
STARLINK-4595           
1 53627U 22104AR  25356.81589437  .00001833  00000+0  13317-3 0  9990
2 53627  53.2163 218.9394 0001704  85.6524 274.4663 15.08853293184158
STARLINK-4600           
1 53628U 22104AS  25356.80117221  .00000505  00000+0  49823-4 0  9995
2 53628  53.2167 218.8499 0001433  89.7986 270.3170 15.08838486184159
STARLINK-4602           
1 53629U 22104AT  25356.34854589  .00000741  00000+0  64646-4 0  9992
2 53629  53.2153 220.9996 0001443  91.0253 269.0904 15.08839246184082
STARLINK-4598           
1 53630U 22104AU  25356.84728782  .00001132  00000+0  89174-4 0  9992
2 53630  53.2165 209.1541 0001374  86.6985 273.4165 15.08840320184462
STARLINK-4599           
1 53631U 22104AV  25356.06884354  .00000692  00000+0  61542-4 0  9994
2 53631  53.2165 222.1004 0001475  87.1563 272.9598 15.08840372184047
STARLINK-4606           
1 53632U 22104AW  25356.83894491  .00000390  00000+0  42579-4 0  9997
2 53632  53.2171 209.1042 0001478  95.9111 264.2050 15.08835839184624
STARLINK-4593           
1 53633U 22104AX  25356.84264729  .00006024  00000+0  39647-3 0  9995
2 53633  53.2172 209.1248 0001543  90.8421 269.2748 15.08818793184297
STARLINK-4592           
1 53634U 22104AY  25356.83156998 -.00000059  00000+0  14415-4 0  9993
2 53634  53.2165 209.0551 0001586  85.9963 274.1211 15.08839187184626
STARLINK-4587           
1 53635U 22104AZ  25356.58335648  .01892370  00000+0  45941-1 0  9997
2 53635  53.2178 208.4259 0001411  73.5164 197.0372 15.37091725  5849
STARLINK-4586           
1 53636U 22104BA  25356.82421845  .00024768  00000+0  15664-2 0  9997
2 53636  53.2161 209.0091 0002275  33.0580 327.0554 15.08896470184624
STARLINK-4396           
1 53637U 22104BB  25356.85832127  .00000602  00000+0  55910-4 0  9991
2 53637  53.2154 209.2152 0001438  93.4185 266.6972 15.08841880184625
STARLINK-4594           
1 53638U 22104BC  25356.80577808 -.00000260  00000+0  17616-5 0  9992
2 53638  53.2160 208.8986 0001571  92.5416 267.5756 15.08839784184628
STARLINK-4422           
1 53639U 22104BD  25356.82052900  .00002511  00000+0  17584-3 0  9998
2 53639  53.2166 208.9889 0001461  80.9208 279.1949 15.08837191184450
